PROBA-1                 
1 26958U 01049B   17286.46871572  .00000887  00000-0  82225-4 0  9994
2 26958  97.5789 249.4537 0071815 292.9048  66.4583 14.95125597869190
BIRD 2                  
1 26959U 01049C   17286.46813135  .00003604  00000-0  10906-3 0  9992
2 26959  97.8000 240.1184 0007964 335.0446  25.0410 15.34888863884464
CUTE-1 (CO-55)          
1 27844U 03031E   17286.56247588  .00000086  00000-0  58596-4 0  9992
2 27844  98.6906 293.8504 0009959  11.7493 348.3915 14.22066316741100
CUBESAT XI-IV (CO-57)   
1 27848U 03031J   17286.45368796  .00000069  00000-0  51138-4 0  9995
2 27848  98.6997 294.0511 0010034  21.5358 338.6240 14.21677228741001
GENESIS 1               
1 29252U 06029A   17286.42903576  .00001272  00000-0  73876-4 0  9994
2 29252  64.5033 259.2874 0027233 317.0155  42.8839 15.16980068619687
FALCONSAT-3             
1 30776U 07006E   17286.52719400  .00005694  00000-0  17512-3 0  9991
2 30776  35.4371  35.4832 0003550 311.5698  48.4723 15.33093010586427
GENESIS 2               
1 31789U 07028A   17286.53078348  .00000838  00000-0  53406-4 0  9998
2 31789  64.5028 297.3211 0016326 215.3880 144.6160 15.16248223566851
APRIZESAT 4             
1 35684U 09041D   17286.31283928  .00000175  00000-0  30625-4 0  9993
2 35684  98.1397 229.8974 0048672  77.3506  75.5618 14.79067810442534
APRIZESAT 3             
1 35686U 09041F   17286.51109442  .00000257  00000-0  34337-4 0  9990
2 35686  98.2804 291.0652 0072950 350.2863   9.6937 14.87126142444727
PROBA-2                 
1 36037U 09059B   17286.52362855  .00000039  00000-0  20358-4 0  9996
2 36037  98.2486 118.0899 0012930 337.1859  22.8761 14.53013893421319
APRIZESAT 5             
1 37792U 11044E   17286.47014443  .00000142  00000-0  28800-4 0  9998
2 37792  98.3548  73.2112 0059101  35.7985 324.7162 14.75173041331304
APRIZESAT 6             
1 37793U 11044F   17286.61064907  .00000151  00000-0  32044-4 0  9990
2 37793  98.3053  57.4557 0048127  60.0757   3.5577 14.72248763330545
TET-1                   
1 38710U 12039D   17286.46749758  .00006012  00000-0  12483-3 0  9998
2 38710  97.5569 247.3882 0003129 114.0356 246.1220 15.46088289292518
STSAT-2C                
1 39068U 13003A   17286.55147837  .00041412 -42382-6  34758-3 0  9995
2 39068  80.1967 316.8181 0328659  61.3609 302.0253 15.23232818250484
PROBA-V                 
1 39159U 13021A   17286.48858339 -.00000004  00000-0  17228-4 0  9995
2 39159  98.5884 359.7162 0005047  40.3768 319.7787 14.22949417230424
CUSAT 1                 
1 39266U 13055B   17286.57991421  .00004857  00000-0  13762-3 0  9998
2 39266  80.9866 245.1899 0656275 243.2412 110.0199 14.30327304208910
STPSAT-3                
1 39380U 13064A   17286.05226721  .00003394  00000-0  10383-3 0  9993
2 39380  40.4997 150.6265 0005543 285.8590  74.1612 15.35063503216244
APRIZESAT 7             
1 39416U 13066A   17286.18479006  .00000168  00000-0  26294-4 0  9990
2 39416  97.6202 331.0666 0040306 223.6341 136.1684 14.83737573210695
APRIZESAT 8             
1 39425U 13066K   17286.58958547  .00000113  00000-0  20925-4 0  9991
2 39425  97.6156 325.0045 0050773 237.8901 121.7379 14.80979511210154
BUGSAT-1 (TITA)         
1 40014U 14033E   17286.59117432 -.00000067  00000-0 -40984-6 0  9992
2 40014  97.9569 213.0566 0030743 294.8487  64.9531 14.94862504180895
SAUDISAT 4              
1 40016U 14033G   17286.60828238  .00000087  00000-0  20228-4 0  9996
2 40016  97.8443 170.6135 0046987 265.7762  93.8076 14.75142185178591
TABLETSAT-AURORA        
1 40017U 14033H   17286.57586523  .00000451  00000-0  49070-4 0  9992
2 40017  97.9427 208.1898 0022363 298.1563  61.7396 14.92898473180622
APRIZESAT 9             
1 40018U 14033J   17286.60922448  .00000080  00000-0  21135-4 0  9997
2 40018  97.8245 159.2446 0070261 292.1620  67.2140 14.69829467177752
APRIZESAT 10            
1 40019U 14033K   17286.55334229  .00000058  00000-0  18576-4 0  9996
2 40019  97.8173 153.1295 0083315 307.9303  51.4392 14.66898080177562
AISAT                   
1 40054U 14034B   17286.34949302  .00000749  00000-0  11328-3 0  9991
2 40054  98.1930  27.7522 0013365  32.3717 327.8310 14.77221888177165
CANX-4                  
1 40055U 14034C   17286.23790026  .00000189  00000-0  36168-4 0  9995
2 40055  98.1880  24.5749 0015204  48.8380 311.4137 14.74649640176946
CANX-5                  
1 40056U 14034D   17286.30709165  .00000199  00000-0  37776-4 0  9995
2 40056  98.1880  24.6413 0015210  48.8201 311.4317 14.74646812167741
TDS 1                   
1 40076U 14037H   17286.51771419  .00000102  00000-0  20362-4 0  9991
2 40076  98.3425  42.3096 0007340  57.0876 303.1049 14.81361465176543
TIANTUO 2               
1 40144U 14053B   17286.52800468  .00001153  00000-0  38064-4 0  9998
2 40144  97.3167   7.7379 0010810 199.1330 286.2818 15.33405427173120
TECHNOSAT               
1 42829U 17042E   17286.55919508  .00000475  00000-0  53883-4 0  9992
2 42829  97.6073 192.9664 0013069 303.5565  56.4405 14.90690446 13586
FLYING LAPTOP           
1 42831U 17042G   17286.35618358  .00000523  00000-0  58683-4 0  9999
2 42831  97.6075 192.7767 0013000 304.9424  55.0573 14.90718550 13552
